H1 CPF 01  gfz 2021 05 10 00  6301 terrasarx 
H2 0702601  6201 31698    2021 05 10 00 59 42 2021 05 15 00 00 42   120 1 1  0 0 0
H9
10 0 59345  66222.000000  0    6854206.950   -686608.319    120674.398
10 0 59345  66342.000000  0    6758192.719   -855417.062   1022077.285
10 0 59345  66462.000000  0    6541237.432  -1006533.393   1905485.198
10 0 59345  66582.000000  0    6207463.894  -1135231.894   2755339.006
10 0 59345  66702.000000  0    5763136.393  -1237272.474   3556673.855
10 0 59345  66822.000000  0    5216536.695  -1309011.452   4295388.225
10 0 59345  66942.000000  0    4577800.601  -1347499.775   4958495.899
10 0 59345  67062.000000  0    3858719.889  -1350563.864   5534354.414
10 0 59345  67182.000000  0    3072515.449  -1316868.564   6012867.556
10 0 59345  67302.000000  0    2233585.751  -1245961.746   6385657.501
10 0 59345  67422.000000  0    1357238.019  -1138299.210   6646205.778
10 0 59345  67542.000000  0     459404.733   -995249.332   6789962.021
10 0 59345  67662.000000  0    -443647.938   -819076.765   6814417.605
10 0 59345  67782.000000  0   -1335614.035   -612906.674   6719145.437
10 0 59345  67902.000000  0   -2200440.646   -380669.472   6505806.748
10 0 59345  68022.000000  0   -3022615.323   -127026.667   6178124.336
10 0 59345  68142.000000  0   -3787444.942    142720.870   5741822.945
10 0 59345  68262.000000  0   -4481321.975    422740.672   5204535.533
10 0 59345  68382.000000  0   -5091972.492    706790.743   4575675.650
10 0 59345  68502.000000  0   -5608681.600    988353.839   3866277.578
10 0 59345  68622.000000  0   -6022490.078   1260781.378   3088805.526
10 0 59345  68742.000000  0   -6326359.173   1517443.839   2256935.985
10 0 59345  68862.000000  0   -6515299.488   1751883.722   1385315.285
10 0 59345  68982.000000  0   -6586460.713   1957968.111    489296.735
10 0 59345  69102.000000  0   -6539177.675   2130036.563   -415338.233
10 0 59345  69222.000000  0   -6374971.631   2263039.608  -1312667.050
10 0 59345  69342.000000  0   -6097507.865   2352665.236  -2186914.626
10 0 59345  69462.000000  0   -5712510.805   2395450.608  -3022738.844
10 0 59345  69582.000000  0   -5227637.031   2388875.121  -3805505.632
10 0 59345  69702.000000  0   -4652311.958   2331432.355  -4521546.349
10 0 59345  69822.000000  0   -3997535.360   2222680.385  -5158393.495
10 0 59345  69942.000000  0   -3275660.995   2063269.872  -5704990.428
10 0 59345  70062.000000  0   -2500157.155   1854949.854  -6151873.491
10 0 59345  70182.000000  0   -1685351.157   1600551.058  -6491325.936
10 0 59345  70302.000000  0    -846162.892   1303947.058  -6717498.778
10 0 59345  70422.000000  0       2164.941    969994.677  -6826500.710
10 0 59345  70542.000000  0     844337.042    604455.423  -6816457.175
10 0 59345  70662.000000  0    1665274.693    213898.231  -6687541.433
10 0 59345  70782.000000  0    2450380.572   -194416.128  -6441971.249
10 0 59345  70902.000000  0    3185792.716   -612665.993  -6083975.083
10 0 59345  71022.000000  0    3858626.777  -1032614.187  -5619726.164
10 0 59345  71142.000000  0    4457200.843  -1445765.122  -5057246.573
10 0 59345  71262.000000  0    4971242.791  -1843533.242  -4406280.760
10 0 59345  71382.000000  0    5392073.600  -2217418.441  -3678137.313
10 0 59345  71502.000000  0    5712763.537  -2559184.856  -2885501.549
10 0 59345  71622.000000  0    5928257.219  -2861039.588  -2042219.972
10 0 59345  71742.000000  0    6035463.109  -3115806.925  -1163060.192
10 0 59345  71862.000000  0    6033305.743  -3317093.779   -263451.142
10 0 59345  71982.000000  0    5922738.132  -3459442.366    640792.558
10 0 59345  72102.000000  0    5706714.119  -3538466.071   1533755.617
10 0 59345  72222.000000  0    5390119.467  -3550964.111   2399712.618
10 0 59345  72342.000000  0    4979662.182  -3495011.123   3223413.239
10 0 59345  72462.000000  0    4483728.260  -3370020.619   3990357.761
10 0 59345  72582.000000  0    3912206.162  -3176780.291   4687056.443
10 0 59345  72702.000000  0    3276283.156  -2917460.127   5301269.930
10 0 59345  72822.000000  0    2588218.407  -2595590.541   5822222.930
10 0 59345  72942.000000  0    1861100.760  -2216013.022   6240789.369
10 0 59345  73062.000000  0    1108594.987  -1784805.172   6549646.727
10 0 59345  73182.000000  0     344681.985  -1309180.965   6743398.072
10 0 59345  73302.000000  0    -416601.959   -797368.009   6818660.474
10 0 59345  73422.000000  0   -1161422.381   -258464.314   6774119.625
10 0 59345  73542.000000  0   -1876396.774    297723.084   6610551.261
10 0 59345  73662.000000  0   -2548834.084    860856.028   6330808.667
10 0 59345  73782.000000  0   -3166960.139   1420256.376   5939776.360
10 0 59345  73902.000000  0   -3720125.668   1965107.531   5444290.606
10 0 59345  74022.000000  0   -4198994.301   2484663.789   4853026.819
10 0 59345  74142.000000  0   -4595706.370   2968464.058   4176353.416
10 0 59345  74262.000000  0   -4904014.568   3406543.887   3426153.325
10 0 59345  74382.000000  0   -5119388.213   3789642.786   2615617.478
10 0 59345  74502.000000  0   -5239084.507   4109402.255   1759012.670
10 0 59345  74622.000000  0   -5262184.878   4358549.470    871426.396
10 0 59345  74742.000000  0   -5189593.121   4531060.605    -31506.359
10 0 59345  74862.000000  0   -5023996.867   4622299.622   -933886.172
10 0 59345  74982.000000  0   -4769793.368   4629130.840  -1819838.833
10 0 59345  75102.000000  0   -4432979.420   4550000.214  -2673804.163
10 0 59345  75222.000000  0   -4021010.062   4384982.718  -3480815.964
10 0 59345  75342.000000  0   -3542629.659   4135796.587  -4226767.100
10 0 59345  75462.000000  0   -3007681.113   3805784.777  -4898654.061
10 0 59345  75582.000000  0   -2426899.286   3399865.113  -5484797.127
10 0 59345  75702.000000  0   -1811693.487   2924451.894  -5975035.510
10 0 59345  75822.000000  0   -1173921.411   2387348.519  -6360894.030
10 0 59345  75942.000000  0    -525660.944   1797614.540  -6635717.683
10 0 59345  76062.000000  0     121015.477   1165411.503  -6794775.182
10 0 59345  76182.000000  0     754260.184    501828.994  -6835331.680
10 0 59345  76302.000000  0    1362662.661   -181306.125  -6756692.041
10 0 59345  76422.000000  0    1935450.778   -871636.484  -6560210.167
10 0 59345  76542.000000  0    2462676.604  -1556491.777  -6249267.776
10 0 59345  76662.000000  0    2935386.848  -2223115.443  -5829222.482
10 0 59345  76782.000000  0    3345774.676  -2858897.463  -5307326.364
10 0 59345  76902.000000  0    3687312.317  -3451613.013  -4692612.256
10 0 59345  77022.000000  0    3954858.173  -3989658.207  -3995746.264
10 0 59345  77142.000000  0    4144738.127  -4462278.940  -3228853.112
10 0 59345  77262.000000  0    4254800.838  -4859790.545  -2405313.532
10 0 59345  77382.000000  0    4284444.028  -5173782.516  -1539534.865
10 0 59345  77502.000000  0    4234608.582  -5397302.316   -646698.477
10 0 59345  77622.000000  0    4107741.892  -5525012.299    257510.484
10 0 59345  77742.000000  0    3907729.886  -5553316.431   1157185.166
10 0 59345  77862.000000  0    3639800.092  -5480452.755   2036485.910
10 0 59345  77982.000000  0    3310396.270  -5306547.432   2879928.491
10 0 59345  78102.000000  0    2927029.160  -5033631.737   3672663.786
10 0 59345  78222.000000  0    2498107.893  -4665619.989   4400744.999
10 0 59345  78342.000000  0    2032756.201  -4208249.844   5051376.256
10 0 59345  78462.000000  0    1540617.544  -3668986.444   5613137.674
10 0 59345  78582.000000  0    1031653.926  -3056892.964   6076183.962
10 0 59345  78702.000000  0     515942.539  -2382470.843   6432411.395
10 0 59345  78822.000000  0       3475.868  -1657474.493   6675592.575
10 0 59345  78942.000000  0    -496030.897   -894703.980   6801479.147
10 0 59345  79062.000000  0    -973322.763   -107777.347   6807872.495
10 0 59345  79182.000000  0   -1419775.556    689112.879   6694659.520
10 0 59345  79302.000000  0   -1827551.250   1481455.033   6463814.244
10 0 59345  79422.000000  0   -2189735.718   2254681.539   6119365.624
10 0 59345  79542.000000  0   -2500456.846   2994436.571   5667331.692
10 0 59345  79662.000000  0   -2754980.965   3686843.973   5115620.523
10 0 59345  79782.000000  0   -2949787.331   4318771.183   4473898.877
10 0 59345  79902.000000  0   -3082617.859   4878084.271   3753427.979
10 0 59345  80022.000000  0   -3152500.843   5353888.596   2966868.891
10 0 59345  80142.000000  0   -3159747.737   5736748.661   2128059.725
10 0 59345  80262.000000  0   -3105923.582   6018881.696   1251769.527
10 0 59345  80382.000000  0   -2993790.907   6194321.262    353433.597
10 0 59345  80502.000000  0   -2827228.621   6259046.609   -551125.842
10 0 59345  80622.000000  0   -2611128.512   6211073.248  -1445987.970
10 0 59345  80742.000000  0   -2351270.193   6050500.989  -2315425.200
10 0 59345  80862.000000  0   -2054177.223   5779516.492  -3144187.077
10 0 59345  80982.000000  0   -1726961.449   5402356.705  -3917769.953
10 0 59345  81102.000000  0   -1377159.201   4925232.336  -4622671.274
10 0 59345  81222.000000  0   -1012563.149   4356213.875  -5246620.845
10 0 59345  81342.000000  0    -641053.679   3705085.482  -5778787.578
10 0 59345  81462.000000  0    -270432.588   2983167.873  -6209959.295
10 0 59345  81582.000000  0      91736.777   2203114.088  -6532691.091
10 0 59345  81702.000000  0     438278.932   1378685.356  -6741421.824
10 0 59345  81822.000000  0     762543.771    524509.500  -6832561.170
10 0 59345  81942.000000  0    1058530.570   -344174.925  -6804544.466
10 0 59345  82062.000000  0    1320995.700  -1211785.403  -6657855.759
10 0 59345  82182.000000  0    1545542.863  -2062667.481  -6395018.963
10 0 59345  82302.000000  0    1728695.767  -2881369.598  -6020559.843
10 0 59345  82422.000000  0    1867952.057  -3652919.163  -5540937.943
10 0 59345  82542.000000  0    1961816.958  -4363097.102  -4964445.891
10 0 59345  82662.000000  0    2009816.194  -4998701.315  -4301075.448
99
